{"type": "FeatureCollection", "features": [ {"type": "Feature", "properties": {"norad_id": 17070, "name": "POLAR BEAR", "group": "nnss", "lat": 49.378977287686766, "lon": -176.354202439972, "alt_km": 949.6316356201478, "timestamp": "2025-12-27T02:10:16.458009+00:00", "meta": {"OBJECT_NAME": "POLAR BEAR", "OBJECT_ID": "1986-088A", "EPOCH": "2025-12-26T12:02:59.489088", "MEAN_MOTION": 13.7525362, "ECCENTRICITY": 0.0041266, "INCLINATION": 89.6169, "RA_OF_ASC_NODE": 183.2226, "ARG_OF_PERICENTER": 79.6962, "MEAN_ANOMALY": 298.6828, "EPHEMERIS_TYPE": 0, "CLASSIFICATION_TYPE": "U", "NORAD_CAT_ID": 17070, "ELEMENT_SET_NO": 999, "REV_AT_EPOCH": 96168, "BSTAR": 0.00010681, "MEAN_MOTION_DOT": 1.15e-06, "MEAN_MOTION_DDOT": 0}, "tle": {"line1": "1 17070U 86088A   25360.50207742  .00000115  00000+0  10681-3 0  9993", "line2": "2 17070  89.6169 183.2226 0041266  79.6962 298.6828 13.75253620961685"}}, "geometry": {"type": "Point", "coordinates": [-176.354202439972, 49.378977287686766]}}, {"type": "Feature", "properties": {"norad_id": 18361, "name": "OSCAR 27", "group": "nnss", "lat": -1.7489286783181153, "lon": -100.20269132540012, "alt_km": 1016.4772696529562, "timestamp": "2025-12-27T02:10:16.458019+00:00", "meta": {"OBJECT_NAME": "OSCAR 27", "OBJECT_ID": "1987-080A", "EPOCH": "2025-12-26T10:59:09.175776", "MEAN_MOTION": 13.44909552, "ECCENTRICITY": 0.0104074, "INCLINATION": 90.3736, "RA_OF_ASC_NODE": 79.7851, "ARG_OF_PERICENTER": 184.3556, "MEAN_ANOMALY": 175.6696, "EPHEMERIS_TYPE": 0, "CLASSIFICATION_TYPE": "U", "NORAD_CAT_ID": 18361, "ELEMENT_SET_NO": 999, "REV_AT_EPOCH": 87741, "BSTAR": 0.00017189, "MEAN_MOTION_DOT": 1.13e-06, "MEAN_MOTION_DDOT": 0}, "tle": {"line1": "1 18361U 87080A   25360.45774509  .00000113  00000+0  17189-3 0  9992", "line2": "2 18361  90.3736  79.7851 0104074 184.3556 175.6696 13.44909552877413"}}, "geometry": {"type": "Point", "coordinates": [-100.20269132540012, -1.7489286783181153]}}, {"type": "Feature", "properties": {"norad_id": 18362, "name": "OSCAR 29", "group": "nnss", "lat": 10.39835121892186, "lon": -99.66226414728894, "alt_km": 1030.7100118298276, "timestamp": "2025-12-27T02:10:16.458029+00:00", "meta": {"OBJECT_NAME": "OSCAR 29", "OBJECT_ID": "1987-080B", "EPOCH": "2025-12-26T11:05:26.932128", "MEAN_MOTION": 13.44450985, "ECCENTRICITY": 0.0104875, "INCLINATION": 90.3748, "RA_OF_ASC_NODE": 80.2454, "ARG_OF_PERICENTER": 207.474, "MEAN_ANOMALY": 163.2863, "EPHEMERIS_TYPE": 0, "CLASSIFICATION_TYPE": "U", "NORAD_CAT_ID": 18362, "ELEMENT_SET_NO": 999, "REV_AT_EPOCH": 87694, "BSTAR": 0.00015143, "MEAN_MOTION_DOT": 9.9e-07, "MEAN_MOTION_DDOT": 0}, "tle": {"line1": "1 18362U 87080B   25360.46211727  .00000099  00000+0  15143-3 0  9993", "line2": "2 18362  90.3748  80.2454 0104875 207.4740 163.2863 13.44450985876941"}}, "geometry": {"type": "Point", "coordinates": [-99.66226414728894, 10.39835121892186]}}, {"type": "Feature", "properties": {"norad_id": 19070, "name": "OSCAR 23", "group": "nnss", "lat": 12.977397326018037, "lon": -163.08931025974874, "alt_km": 1027.4659385344012, "timestamp": "2025-12-27T02:10:16.458039+00:00", "meta": {"OBJECT_NAME": "OSCAR 23", "OBJECT_ID": "1988-033A", "EPOCH": "2025-12-26T15:06:18.736128", "MEAN_MOTION": 13.27789302, "ECCENTRICITY": 0.0190593, "INCLINATION": 90.3203, "RA_OF_ASC_NODE": 16.8225, "ARG_OF_PERICENTER": 141.4067, "MEAN_ANOMALY": 341.813, "EPHEMERIS_TYPE": 0, "CLASSIFICATION_TYPE": "U", "NORAD_CAT_ID": 19070, "ELEMENT_SET_NO": 999, "REV_AT_EPOCH": 82437, "BSTAR": 0.00012944, "MEAN_MOTION_DOT": 7.4e-07, "MEAN_MOTION_DDOT": 0}, "tle": {"line1": "1 19070U 88033A   25360.62938352  .00000074  00000+0  12944-3 0  9996", "line2": "2 19070  90.3203  16.8225 0190593 141.4067 341.8130 13.27789302824376"}}, "geometry": {"type": "Point", "coordinates": [-163.08931025974874, 12.977397326018037]}}, {"type": "Feature", "properties": {"norad_id": 19071, "name": "OSCAR 32", "group": "nnss", "lat": -74.36919430612244, "lon": 18.1173321793276, "alt_km": 1294.3403951857217, "timestamp": "2025-12-27T02:10:16.458050+00:00", "meta": {"OBJECT_NAME": "OSCAR 32", "OBJECT_ID": "1988-033B", "EPOCH": "2025-12-26T10:53:58.878816", "MEAN_MOTION": 13.27955937, "ECCENTRICITY": 0.0189311, "INCLINATION": 90.3209, "RA_OF_ASC_NODE": 16.9498, "ARG_OF_PERICENTER": 128.8267, "MEAN_ANOMALY": 355.8113, "EPHEMERIS_TYPE": 0, "CLASSIFICATION_TYPE": "U", "NORAD_CAT_ID": 19071, "ELEMENT_SET_NO": 999, "REV_AT_EPOCH": 82447, "BSTAR": 0.00013956, "MEAN_MOTION_DOT": 7.9e-07, "MEAN_MOTION_DDOT": 0}, "tle": {"line1": "1 19071U 88033B   25360.45415369  .00000079  00000+0  13956-3 0  9995", "line2": "2 19071  90.3209  16.9498 0189311 128.8267 355.8113 13.27955937824479"}}, "geometry": {"type": "Point", "coordinates": [18.1173321793276, -74.36919430612244]}}, {"type": "Feature", "properties": {"norad_id": 19223, "name": "NOVA 2", "group": "nnss", "lat": -42.97818562476536, "lon": -101.73304086169918, "alt_km": 1189.2066972991897, "timestamp": "2025-12-27T02:10:16.458060+00:00", "meta": {"OBJECT_NAME": "NOVA 2", "OBJECT_ID": "1988-052A", "EPOCH": "2025-12-26T16:48:25.235712", "MEAN_MOTION": 13.22937608, "ECCENTRICITY": 0.0029415, "INCLINATION": 89.9863, "RA_OF_ASC_NODE": 78.2547, "ARG_OF_PERICENTER": 338.0829, "MEAN_ANOMALY": 187.9469, "EPHEMERIS_TYPE": 0, "CLASSIFICATION_TYPE": "U", "NORAD_CAT_ID": 19223, "ELEMENT_SET_NO": 999, "REV_AT_EPOCH": 81132, "BSTAR": 0.00012528, "MEAN_MOTION_DOT": 6.1e-07, "MEAN_MOTION_DDOT": 0}, "tle": {"line1": "1 19223U 88052A   25360.70029208  .00000061  00000+0  12528-3 0  9991", "line2": "2 19223  89.9863  78.2547 0029415 338.0829 187.9469 13.22937608811329"}}, "geometry": {"type": "Point", "coordinates": [-101.73304086169918, -42.97818562476536]}}, {"type": "Feature", "properties": {"norad_id": 19419, "name": "OSCAR 25", "group": "nnss", "lat": -55.76349049179778, "lon": -159.75900985702893, "alt_km": 1045.5339851059189, "timestamp": "2025-12-27T02:10:16.458070+00:00", "meta": {"OBJECT_NAME": "OSCAR 25", "OBJECT_ID": "1988-074A", "EPOCH": "2025-12-26T13:18:28.068192", "MEAN_MOTION": 13.42625822, "ECCENTRICITY": 0.0095317, "INCLINATION": 90.0336, "RA_OF_ASC_NODE": 20.2886, "ARG_OF_PERICENTER": 205.9306, "MEAN_ANOMALY": 320.1104, "EPHEMERIS_TYPE": 0, "CLASSIFICATION_TYPE": "U", "NORAD_CAT_ID": 19419, "ELEMENT_SET_NO": 999, "REV_AT_EPOCH": 82825, "BSTAR": 0.00014338, "MEAN_MOTION_DOT": 9.2e-07, "MEAN_MOTION_DDOT": 0}, "tle": {"line1": "1 19419U 88074A   25360.55449153  .00000092  00000+0  14338-3 0  9995", "line2": "2 19419  90.0336  20.2886 0095317 205.9306 320.1104 13.42625822828254"}}, "geometry": {"type": "Point", "coordinates": [-159.75900985702893, -55.76349049179778]}}, {"type": "Feature", "properties": {"norad_id": 19420, "name": "OSCAR 31", "group": "nnss", "lat": 64.12246309321769, "lon": -159.2843810087396, "alt_km": 1083.9503725477698, "timestamp": "2025-12-27T02:10:16.458080+00:00", "meta": {"OBJECT_NAME": "OSCAR 31", "OBJECT_ID": "1988-074B", "EPOCH": "2025-12-26T19:18:00.636192", "MEAN_MOTION": 13.42586836, "ECCENTRICITY": 0.009374, "INCLINATION": 90.0353, "RA_OF_ASC_NODE": 20.6418, "ARG_OF_PERICENTER": 199.3606, "MEAN_ANOMALY": 334.6034, "EPHEMERIS_TYPE": 0, "CLASSIFICATION_TYPE": "U", "NORAD_CAT_ID": 19420, "ELEMENT_SET_NO": 999, "REV_AT_EPOCH": 82839, "BSTAR": 0.00011173, "MEAN_MOTION_DOT": 7.4e-07, "MEAN_MOTION_DDOT": 0}, "tle": {"line1": "1 19420U 88074B   25360.80417403  .00000074  00000+0  11173-3 0  9992", "line2": "2 19420  90.0353  20.6418 0093740 199.3606 334.6034 13.42586836828395"}}, "geometry": {"type": "Point", "coordinates": [-159.2843810087396, 64.12246309321769]}}]}